CCSDS_OMM_VERS = 2.0
CREATION_DATE  = 
ORIGINATOR     = 

OBJECT_NAME    = SL-14 R/B
OBJECT_ID      = 1986-046B
CENTER_NAME    = EARTH
REF_FRAME      = TEME
TIME_SYSTEM    = UTC
MEAN_ELEMENT_THEORY = SGP/SGP4

EPOCH          = 2026-01-01T18:54:09.939456
MEAN_MOTION    = 14.85511692
ECCENTRICITY   = .00245619
INCLINATION    = 82.4826
RA_OF_ASC_NODE = 143.3811
ARG_OF_PERICENTER = 89.2690
MEAN_ANOMALY   = 271.1340

EPHEMERIS_TYPE = 0
CLASSIFICATION_TYPE = U
NORAD_CAT_ID   = 16792
ELEMENT_SET_NO = 999
REV_AT_EPOCH   = 11647
BSTAR          = .11333719E-3
MEAN_MOTION_DOT = .1008E-4
MEAN_MOTION_DDOT = 0

CCSDS_OMM_VERS = 2.0
CREATION_DATE  = 
ORIGINATOR     = 

OBJECT_NAME    = SL-14 R/B
OBJECT_ID      = 1986-055B
CENTER_NAME    = EARTH
REF_FRAME      = TEME
TIME_SYSTEM    = UTC
MEAN_ELEMENT_THEORY = SGP/SGP4

EPOCH          = 2026-01-02T00:07:33.280320
MEAN_MOTION    = 14.85555406
ECCENTRICITY   = .00186196
INCLINATION    = 82.5197
RA_OF_ASC_NODE = 189.3296
ARG_OF_PERICENTER = 188.5885
MEAN_ANOMALY   = 328.6238

EPHEMERIS_TYPE = 0
CLASSIFICATION_TYPE = U
NORAD_CAT_ID   = 16882
ELEMENT_SET_NO = 999
REV_AT_EPOCH   = 10946
BSTAR          = .10973511E-3
MEAN_MOTION_DOT = .975E-5
MEAN_MOTION_DDOT = 0

CCSDS_OMM_VERS = 2.0
CREATION_DATE  = 
ORIGINATOR     = 

OBJECT_NAME    = AJISAI (EGS)
OBJECT_ID      = 1986-061A
CENTER_NAME    = EARTH
REF_FRAME      = TEME
TIME_SYSTEM    = UTC
MEAN_ELEMENT_THEORY = SGP/SGP4

EPOCH          = 2026-01-01T23:35:15.148608
MEAN_MOTION    = 12.44514546
ECCENTRICITY   = .00113203
INCLINATION    = 50.0106
RA_OF_ASC_NODE = 298.4721
ARG_OF_PERICENTER = 116.7101
MEAN_ANOMALY   = 323.3976

EPHEMERIS_TYPE = 0
CLASSIFICATION_TYPE = U
NORAD_CAT_ID   = 16908
ELEMENT_SET_NO = 999
REV_AT_EPOCH   = 45969
BSTAR          = .80970437E-4
MEAN_MOTION_DOT = -.86E-6
MEAN_MOTION_DDOT = 0

CCSDS_OMM_VERS = 2.0
CREATION_DATE  = 
ORIGINATOR     = 

OBJECT_NAME    = COSMOS 1812
OBJECT_ID      = 1987-003A
CENTER_NAME    = EARTH
REF_FRAME      = TEME
TIME_SYSTEM    = UTC
MEAN_ELEMENT_THEORY = SGP/SGP4

EPOCH          = 2026-01-01T18:34:01.498944
MEAN_MOTION    = 15.80329829
ECCENTRICITY   = .00050905
INCLINATION    = 82.4865
RA_OF_ASC_NODE = 270.2611
ARG_OF_PERICENTER = 61.9671
MEAN_ANOMALY   = 298.2111

EPHEMERIS_TYPE = 0
CLASSIFICATION_TYPE = U
NORAD_CAT_ID   = 17295
ELEMENT_SET_NO = 999
REV_AT_EPOCH   = 13381
BSTAR          = .93347884E-3
MEAN_MOTION_DOT = .178565E-2
MEAN_MOTION_DDOT = 0

CCSDS_OMM_VERS = 2.0
CREATION_DATE  = 
ORIGINATOR     = 

OBJECT_NAME    = SL-14 R/B
OBJECT_ID      = 1987-024B
CENTER_NAME    = EARTH
REF_FRAME      = TEME
TIME_SYSTEM    = UTC
MEAN_ELEMENT_THEORY = SGP/SGP4

EPOCH          = 2026-01-01T21:54:11.804832
MEAN_MOTION    = 14.86051147
ECCENTRICITY   = .00194642
INCLINATION    = 82.5286
RA_OF_ASC_NODE = 155.5040
ARG_OF_PERICENTER = 119.7526
MEAN_ANOMALY   = 240.5630

EPHEMERIS_TYPE = 0
CLASSIFICATION_TYPE = U
NORAD_CAT_ID   = 17567
ELEMENT_SET_NO = 999
REV_AT_EPOCH   = 7821
BSTAR          = .11653032E-3
MEAN_MOTION_DOT = .1047E-4
MEAN_MOTION_DDOT = 0

CCSDS_OMM_VERS = 2.0
CREATION_DATE  = 
ORIGINATOR     = 

OBJECT_NAME    = COSMOS 1833
OBJECT_ID      = 1987-027A
CENTER_NAME    = EARTH
REF_FRAME      = TEME
TIME_SYSTEM    = UTC
MEAN_ELEMENT_THEORY = SGP/SGP4

EPOCH          = 2026-01-01T16:20:21.951168
MEAN_MOTION    = 14.13033784
ECCENTRICITY   = .0023479
INCLINATION    = 70.9180
RA_OF_ASC_NODE = 106.8599
ARG_OF_PERICENTER = 303.9996
MEAN_ANOMALY   = 55.8894

EPHEMERIS_TYPE = 0
CLASSIFICATION_TYPE = U
NORAD_CAT_ID   = 17589
ELEMENT_SET_NO = 999
REV_AT_EPOCH   = 85
BSTAR          = .20863216E-3
MEAN_MOTION_DOT = .342E-5
MEAN_MOTION_DDOT = 0

CCSDS_OMM_VERS = 2.0
CREATION_DATE  = 
ORIGINATOR     = 

OBJECT_NAME    = SL-16 R/B
OBJECT_ID      = 1987-027B
CENTER_NAME    = EARTH
REF_FRAME      = TEME
TIME_SYSTEM    = UTC
MEAN_ELEMENT_THEORY = SGP/SGP4

EPOCH          = 2026-01-01T13:35:25.041120
MEAN_MOTION    = 14.17156149
ECCENTRICITY   = .0007029
INCLINATION    = 71.0032
RA_OF_ASC_NODE = 57.9406
ARG_OF_PERICENTER = 239.0717
MEAN_ANOMALY   = 120.9716

EPHEMERIS_TYPE = 0
CLASSIFICATION_TYPE = U
NORAD_CAT_ID   = 17590
ELEMENT_SET_NO = 999
REV_AT_EPOCH   = 583
BSTAR          = .13551E-4
MEAN_MOTION_DOT = -.21E-6
MEAN_MOTION_DDOT = 0

CCSDS_OMM_VERS = 2.0
CREATION_DATE  = 
ORIGINATOR     = 

OBJECT_NAME    = SL-14 R/B
OBJECT_ID      = 1987-038B
CENTER_NAME    = EARTH
REF_FRAME      = TEME
TIME_SYSTEM    = UTC
MEAN_ELEMENT_THEORY = SGP/SGP4

EPOCH          = 2026-01-02T00:11:28.126752
MEAN_MOTION    = 14.85285494
ECCENTRICITY   = .00200684
INCLINATION    = 82.5011
RA_OF_ASC_NODE = 359.6081
ARG_OF_PERICENTER = 29.3285
MEAN_ANOMALY   = 330.9052

EPHEMERIS_TYPE = 0
CLASSIFICATION_TYPE = U
NORAD_CAT_ID   = 17912
ELEMENT_SET_NO = 999
REV_AT_EPOCH   = 6933
BSTAR          = .10889753E-3
MEAN_MOTION_DOT = .962E-5
MEAN_MOTION_DDOT = 0

CCSDS_OMM_VERS = 2.0
CREATION_DATE  = 
ORIGINATOR     = 

OBJECT_NAME    = COSMOS 1844
OBJECT_ID      = 1987-041A
CENTER_NAME    = EARTH
REF_FRAME      = TEME
TIME_SYSTEM    = UTC
MEAN_ELEMENT_THEORY = SGP/SGP4

EPOCH          = 2026-01-01T22:16:30.970272
MEAN_MOTION    = 14.14537585
ECCENTRICITY   = .00289638
INCLINATION    = 70.8985
RA_OF_ASC_NODE = 174.9905
ARG_OF_PERICENTER = 125.1571
MEAN_ANOMALY   = 235.2271

EPHEMERIS_TYPE = 0
CLASSIFICATION_TYPE = U
NORAD_CAT_ID   = 17973
ELEMENT_SET_NO = 999
REV_AT_EPOCH   = 99414
BSTAR          = .16072759E-3
MEAN_MOTION_DOT = .262E-5
MEAN_MOTION_DDOT = 0

CCSDS_OMM_VERS = 2.0
CREATION_DATE  = 
ORIGINATOR     = 

OBJECT_NAME    = SL-14 R/B
OBJECT_ID      = 1987-055B
CENTER_NAME    = EARTH
REF_FRAME      = TEME
TIME_SYSTEM    = UTC
MEAN_ELEMENT_THEORY = SGP/SGP4

EPOCH          = 2026-01-01T15:49:42.603168
MEAN_MOTION    = 14.85545283
ECCENTRICITY   = .00194662
INCLINATION    = 82.4984
RA_OF_ASC_NODE = 52.2136
ARG_OF_PERICENTER = 232.7233
MEAN_ANOMALY   = 127.2209

EPHEMERIS_TYPE = 0
CLASSIFICATION_TYPE = U
NORAD_CAT_ID   = 18153
ELEMENT_SET_NO = 999
REV_AT_EPOCH   = 5998
BSTAR          = .10338364E-3
MEAN_MOTION_DOT = .92E-5
MEAN_MOTION_DDOT = 0

CCSDS_OMM_VERS = 2.0
CREATION_DATE  = 
ORIGINATOR     = 

OBJECT_NAME    = COSMOS 1867
OBJECT_ID      = 1987-060A
CENTER_NAME    = EARTH
REF_FRAME      = TEME
TIME_SYSTEM    = UTC
MEAN_ELEMENT_THEORY = SGP/SGP4

EPOCH          = 2026-01-01T17:21:24.919776
MEAN_MOTION    = 14.31490353
ECCENTRICITY   = .00138366
INCLINATION    = 65.0102
RA_OF_ASC_NODE = 134.2406
ARG_OF_PERICENTER = 273.1982
MEAN_ANOMALY   = 86.7520

EPHEMERIS_TYPE = 0
CLASSIFICATION_TYPE = U
NORAD_CAT_ID   = 18187
ELEMENT_SET_NO = 999
REV_AT_EPOCH   = 1035
BSTAR          = .66132022E-4
MEAN_MOTION_DOT = .76E-6
MEAN_MOTION_DDOT = 0

CCSDS_OMM_VERS = 2.0
CREATION_DATE  = 
ORIGINATOR     = 

OBJECT_NAME    = SL-14 R/B
OBJECT_ID      = 1988-001B
CENTER_NAME    = EARTH
REF_FRAME      = TEME
TIME_SYSTEM    = UTC
MEAN_ELEMENT_THEORY = SGP/SGP4

EPOCH          = 2026-01-01T18:50:38.652576
MEAN_MOTION    = 14.85448603
ECCENTRICITY   = .00195917
INCLINATION    = 82.5129
RA_OF_ASC_NODE = 258.2948
ARG_OF_PERICENTER = 98.8021
MEAN_ANOMALY   = 261.5415

EPHEMERIS_TYPE = 0
CLASSIFICATION_TYPE = U
NORAD_CAT_ID   = 18749
ELEMENT_SET_NO = 999
REV_AT_EPOCH   = 3209
BSTAR          = .10644898E-3
MEAN_MOTION_DOT = .945E-5
MEAN_MOTION_DDOT = 0

