SL-14 R/B               
1 16792U 86046B   26001.78761504  .00001008  00000+0  11334-3 0  9999
2 16792  82.4826 143.3811 0024561  89.2690 271.1340 14.85511692116479
SL-14 R/B               
1 16882U 86055B   26002.00524630  .00000975  00000+0  10974-3 0  9993
2 16882  82.5197 189.3296 0018619 188.5885 328.6238 14.85555406109460
AJISAI (EGS)            
1 16908U 86061A   26001.98281422 -.00000086  00000+0  80970-4 0  9992
2 16908  50.0106 298.4721 0011320 116.7101 323.3976 12.44514546459697
COSMOS 1812             
1 17295U 87003A   26001.77362846  .00178565  00000+0  93348-3 0  9995
2 17295  82.4865 270.2611 0005090  61.9671 298.2111 15.80329829133819
SL-14 R/B               
1 17567U 87024B   26001.91263663  .00001047  00000+0  11653-3 0  9992
2 17567  82.5286 155.5040 0019464 119.7526 240.5630 14.86051147 78219
COSMOS 1833             
1 17589U 87027A   26001.68080962  .00000342  00000+0  20863-3 0  9992
2 17589  70.9180 106.8599 0023479 303.9996  55.8894 14.13033784   855
SL-16 R/B               
1 17590U 87027B   26001.56626205 -.00000021  00000+0  13551-4 0  9999
2 17590  71.0032  57.9406 0007029 239.0717 120.9716 14.17156149  5836
SL-14 R/B               
1 17912U 87038B   26002.00796443  .00000962  00000+0  10890-3 0  9996
2 17912  82.5011 359.6081 0020068  29.3285 330.9052 14.85285494 69339
COSMOS 1844             
1 17973U 87041A   26001.92813623  .00000262  00000+0  16073-3 0  9999
2 17973  70.8985 174.9905 0028963 125.1571 235.2271 14.14537585994143
SL-14 R/B               
1 18153U 87055B   26001.65952087  .00000920  00000+0  10338-3 0  9992
2 18153  82.4984  52.2136 0019466 232.7233 127.2209 14.85545283 59981
COSMOS 1867             
1 18187U 87060A   26001.72320509  .00000076  00000+0  66132-4 0  9997
2 18187  65.0102 134.2406 0013836 273.1982  86.7520 14.31490353 10354
SL-14 R/B               
1 18749U 88001B   26001.78516959  .00000945  00000+0  10645-3 0  9991
2 18749  82.5129 258.2948 0019591  98.8021 261.5415 14.85448603 32090
